ORBCOMM-X               
1 21576U 91050C   25158.67136265  .00000283  00000+0  96796-4 0  9996
2 21576  98.3437 225.4636 0003143 195.1351 164.9746 14.43256595780962
ORBCOMM FM01            
1 23545U 95017A   25158.53288051  .00004807  00000+0  50635-3 0  9994
2 23545  69.9629  98.2064 0005084 295.9997  64.0634 14.89981057611078
ORBCOMM FM02            
1 23546U 95017B   25158.27979142  .00005826  00000+0  59919-3 0  9990
2 23546  69.9635 118.2597 0006399 303.3500  56.7042 14.90810601610689
ORBCOMM FM08            
1 25112U 97084A   25158.43772652  .00001198  00000+0  37489-3 0  9998
2 25112  45.0152  54.6643 0005236 201.3938 158.6695 14.45785570439967
ORBCOMM FM10            
1 25113U 97084B   25158.83207064  .00001214  00000+0  38122-3 0  9997
2 25113  45.0164  55.1355 0003693 160.6116 199.4877 14.45576490440176
ORBCOMM FM11            
1 25114U 97084C   25158.42026384  .00001106  00000+0  35254-3 0  9990
2 25114  45.0149  57.7266 0004421 161.7356 198.3655 14.45325501440062
ORBCOMM FM12            
1 25115U 97084D   25158.45201913  .00001156  00000+0  36665-3 0  9999
2 25115  45.0156  57.3257 0003448 156.9034 203.1973 14.45347484439862
ORBCOMM FM09            
1 25116U 97084E   25158.82912472  .00001097  00000+0  35086-3 0  9990
2 25116  45.0160  56.4400 0004923 147.5906 212.5249 14.45224640440153
