<?xml version="1.0" encoding="UTF-8"?>
<ndm xmlns:xsi="http://www.w3.org/2001/XMLSchema-instance" xsi:noNamespaceSchemaLocation="https://sanaregistry.org/r/ndmxml_unqualified/ndmxml-2.0.0-master-2.0.xsd">
<omm id="CCSDS_OMM_VERS" version="2.0">
<header><CREATION_DATE/><ORIGINATOR/></header><body><segment><metadata><OBJECT_NAME>ORBCOMM-X</OBJECT_NAME><OBJECT_ID>1991-050C</OBJECT_ID><CENTER_NAME>EARTH</CENTER_NAME><REF_FRAME>TEME</REF_FRAME><TIME_SYSTEM>UTC</TIME_SYSTEM><MEAN_ELEMENT_THEORY>SGP4</MEAN_ELEMENT_THEORY></metadata><data><meanElements><EPOCH>2025-06-07T16:06:45.732960</EPOCH><MEAN_MOTION>14.43256595</MEAN_MOTION><ECCENTRICITY>.0003143</ECCENTRICITY><INCLINATION>98.3437</INCLINATION><RA_OF_ASC_NODE>225.4636</RA_OF_ASC_NODE><ARG_OF_PERICENTER>195.1351</ARG_OF_PERICENTER><MEAN_ANOMALY>164.9746</MEAN_ANOMALY></meanElements><tleParameters><EPHEMERIS_TYPE>0</EPHEMERIS_TYPE><CLASSIFICATION_TYPE>U</CLASSIFICATION_TYPE><NORAD_CAT_ID>21576</NORAD_CAT_ID><ELEMENT_SET_NO>999</ELEMENT_SET_NO><REV_AT_EPOCH>78096</REV_AT_EPOCH><BSTAR>.96796E-4</BSTAR><MEAN_MOTION_DOT>.283E-5</MEAN_MOTION_DOT><MEAN_MOTION_DDOT>0</MEAN_MOTION_DDOT></tleParameters></data></segment></body></omm>
<omm id="CCSDS_OMM_VERS" version="2.0">
<header><CREATION_DATE/><ORIGINATOR/></header><body><segment><metadata><OBJECT_NAME>ORBCOMM FM01</OBJECT_NAME><OBJECT_ID>1995-017A</OBJECT_ID><CENTER_NAME>EARTH</CENTER_NAME><REF_FRAME>TEME</REF_FRAME><TIME_SYSTEM>UTC</TIME_SYSTEM><MEAN_ELEMENT_THEORY>SGP4</MEAN_ELEMENT_THEORY></metadata><data><meanElements><EPOCH>2025-06-07T12:47:20.876064</EPOCH><MEAN_MOTION>14.89981057</MEAN_MOTION><ECCENTRICITY>.0005084</ECCENTRICITY><INCLINATION>69.9629</INCLINATION><RA_OF_ASC_NODE>98.2064</RA_OF_ASC_NODE><ARG_OF_PERICENTER>295.9997</ARG_OF_PERICENTER><MEAN_ANOMALY>64.0634</MEAN_ANOMALY></meanElements><tleParameters><EPHEMERIS_TYPE>0</EPHEMERIS_TYPE><CLASSIFICATION_TYPE>U</CLASSIFICATION_TYPE><NORAD_CAT_ID>23545</NORAD_CAT_ID><ELEMENT_SET_NO>999</ELEMENT_SET_NO><REV_AT_EPOCH>61107</REV_AT_EPOCH><BSTAR>.50635E-3</BSTAR><MEAN_MOTION_DOT>.4807E-4</MEAN_MOTION_DOT><MEAN_MOTION_DDOT>0</MEAN_MOTION_DDOT></tleParameters></data></segment></body></omm>
<omm id="CCSDS_OMM_VERS" version="2.0">
<header><CREATION_DATE/><ORIGINATOR/></header><body><segment><metadata><OBJECT_NAME>ORBCOMM FM02</OBJECT_NAME><OBJECT_ID>1995-017B</OBJECT_ID><CENTER_NAME>EARTH</CENTER_NAME><REF_FRAME>TEME</REF_FRAME><TIME_SYSTEM>UTC</TIME_SYSTEM><MEAN_ELEMENT_THEORY>SGP4</MEAN_ELEMENT_THEORY></metadata><data><meanElements><EPOCH>2025-06-07T06:42:53.978688</EPOCH><MEAN_MOTION>14.90810601</MEAN_MOTION><ECCENTRICITY>.0006399</ECCENTRICITY><INCLINATION>69.9635</INCLINATION><RA_OF_ASC_NODE>118.2597</RA_OF_ASC_NODE><ARG_OF_PERICENTER>303.3500</ARG_OF_PERICENTER><MEAN_ANOMALY>56.7042</MEAN_ANOMALY></meanElements><tleParameters><EPHEMERIS_TYPE>0</EPHEMERIS_TYPE><CLASSIFICATION_TYPE>U</CLASSIFICATION_TYPE><NORAD_CAT_ID>23546</NORAD_CAT_ID><ELEMENT_SET_NO>999</ELEMENT_SET_NO><REV_AT_EPOCH>61068</REV_AT_EPOCH><BSTAR>.59919E-3</BSTAR><MEAN_MOTION_DOT>.5826E-4</MEAN_MOTION_DOT><MEAN_MOTION_DDOT>0</MEAN_MOTION_DDOT></tleParameters></data></segment></body></omm>
<omm id="CCSDS_OMM_VERS" version="2.0">
<header><CREATION_DATE/><ORIGINATOR/></header><body><segment><metadata><OBJECT_NAME>ORBCOMM FM08</OBJECT_NAME><OBJECT_ID>1997-084A</OBJECT_ID><CENTER_NAME>EARTH</CENTER_NAME><REF_FRAME>TEME</REF_FRAME><TIME_SYSTEM>UTC</TIME_SYSTEM><MEAN_ELEMENT_THEORY>SGP4</MEAN_ELEMENT_THEORY></metadata><data><meanElements><EPOCH>2025-06-07T10:30:19.571328</EPOCH><MEAN_MOTION>14.45785570</MEAN_MOTION><ECCENTRICITY>.0005236</ECCENTRICITY><INCLINATION>45.0152</INCLINATION><RA_OF_ASC_NODE>54.6643</RA_OF_ASC_NODE><ARG_OF_PERICENTER>201.3938</ARG_OF_PERICENTER><MEAN_ANOMALY>158.6695</MEAN_ANOMALY></meanElements><tleParameters><EPHEMERIS_TYPE>0</EPHEMERIS_TYPE><CLASSIFICATION_TYPE>U</CLASSIFICATION_TYPE><NORAD_CAT_ID>25112</NORAD_CAT_ID><ELEMENT_SET_NO>999</ELEMENT_SET_NO><REV_AT_EPOCH>43996</REV_AT_EPOCH><BSTAR>.37489E-3</BSTAR><MEAN_MOTION_DOT>.1198E-4</MEAN_MOTION_DOT><MEAN_MOTION_DDOT>0</MEAN_MOTION_DDOT></tleParameters></data></segment></body></omm>
<omm id="CCSDS_OMM_VERS" version="2.0">
<header><CREATION_DATE/><ORIGINATOR/></header><body><segment><metadata><OBJECT_NAME>ORBCOMM FM10</OBJECT_NAME><OBJECT_ID>1997-084B</OBJECT_ID><CENTER_NAME>EARTH</CENTER_NAME><REF_FRAME>TEME</REF_FRAME><TIME_SYSTEM>UTC</TIME_SYSTEM><MEAN_ELEMENT_THEORY>SGP4</MEAN_ELEMENT_THEORY></metadata><data><meanElements><EPOCH>2025-06-07T19:58:10.903296</EPOCH><MEAN_MOTION>14.45576490</MEAN_MOTION><ECCENTRICITY>.0003693</ECCENTRICITY><INCLINATION>45.0164</INCLINATION><RA_OF_ASC_NODE>55.1355</RA_OF_ASC_NODE><ARG_OF_PERICENTER>160.6116</ARG_OF_PERICENTER><MEAN_ANOMALY>199.4877</MEAN_ANOMALY></meanElements><tleParameters><EPHEMERIS_TYPE>0</EPHEMERIS_TYPE><CLASSIFICATION_TYPE>U</CLASSIFICATION_TYPE><NORAD_CAT_ID>25113</NORAD_CAT_ID><ELEMENT_SET_NO>999</ELEMENT_SET_NO><REV_AT_EPOCH>44017</REV_AT_EPOCH><BSTAR>.38122E-3</BSTAR><MEAN_MOTION_DOT>.1214E-4</MEAN_MOTION_DOT><MEAN_MOTION_DDOT>0</MEAN_MOTION_DDOT></tleParameters></data></segment></body></omm>
<omm id="CCSDS_OMM_VERS" version="2.0">
<header><CREATION_DATE/><ORIGINATOR/></header><body><segment><metadata><OBJECT_NAME>ORBCOMM FM11</OBJECT_NAME><OBJECT_ID>1997-084C</OBJECT_ID><CENTER_NAME>EARTH</CENTER_NAME><REF_FRAME>TEME</REF_FRAME><TIME_SYSTEM>UTC</TIME_SYSTEM><MEAN_ELEMENT_THEORY>SGP4</MEAN_ELEMENT_THEORY></metadata><data><meanElements><EPOCH>2025-06-07T10:05:10.795776</EPOCH><MEAN_MOTION>14.45325501</MEAN_MOTION><ECCENTRICITY>.0004421</ECCENTRICITY><INCLINATION>45.0149</INCLINATION><RA_OF_ASC_NODE>57.7266</RA_OF_ASC_NODE><ARG_OF_PERICENTER>161.7356</ARG_OF_PERICENTER><MEAN_ANOMALY>198.3655</MEAN_ANOMALY></meanElements><tleParameters><EPHEMERIS_TYPE>0</EPHEMERIS_TYPE><CLASSIFICATION_TYPE>U</CLASSIFICATION_TYPE><NORAD_CAT_ID>25114</NORAD_CAT_ID><ELEMENT_SET_NO>999</ELEMENT_SET_NO><REV_AT_EPOCH>44006</REV_AT_EPOCH><BSTAR>.35254E-3</BSTAR><MEAN_MOTION_DOT>.1106E-4</MEAN_MOTION_DOT><MEAN_MOTION_DDOT>0</MEAN_MOTION_DDOT></tleParameters></data></segment></body></omm>
<omm id="CCSDS_OMM_VERS" version="2.0">
<header><CREATION_DATE/><ORIGINATOR/></header><body><segment><metadata><OBJECT_NAME>ORBCOMM FM12</OBJECT_NAME><OBJECT_ID>1997-084D</OBJECT_ID><CENTER_NAME>EARTH</CENTER_NAME><REF_FRAME>TEME</REF_FRAME><TIME_SYSTEM>UTC</TIME_SYSTEM><MEAN_ELEMENT_THEORY>SGP4</MEAN_ELEMENT_THEORY></metadata><data><meanElements><EPOCH>2025-06-07T10:50:54.452832</EPOCH><MEAN_MOTION>14.45347484</MEAN_MOTION><ECCENTRICITY>.0003448</ECCENTRICITY><INCLINATION>45.0156</INCLINATION><RA_OF_ASC_NODE>57.3257</RA_OF_ASC_NODE><ARG_OF_PERICENTER>156.9034</ARG_OF_PERICENTER><MEAN_ANOMALY>203.1973</MEAN_ANOMALY></meanElements><tleParameters><EPHEMERIS_TYPE>0</EPHEMERIS_TYPE><CLASSIFICATION_TYPE>U</CLASSIFICATION_TYPE><NORAD_CAT_ID>25115</NORAD_CAT_ID><ELEMENT_SET_NO>999</ELEMENT_SET_NO><REV_AT_EPOCH>43986</REV_AT_EPOCH><BSTAR>.36665E-3</BSTAR><MEAN_MOTION_DOT>.1156E-4</MEAN_MOTION_DOT><MEAN_MOTION_DDOT>0</MEAN_MOTION_DDOT></tleParameters></data></segment></body></omm>
<omm id="CCSDS_OMM_VERS" version="2.0">
<header><CREATION_DATE/><ORIGINATOR/></header><body><segment><metadata><OBJECT_NAME>ORBCOMM FM09</OBJECT_NAME><OBJECT_ID>1997-084E</OBJECT_ID><CENTER_NAME>EARTH</CENTER_NAME><REF_FRAME>TEME</REF_FRAME><TIME_SYSTEM>UTC</TIME_SYSTEM><MEAN_ELEMENT_THEORY>SGP4</MEAN_ELEMENT_THEORY></metadata><data><meanElements><EPOCH>2025-06-07T19:53:56.375808</EPOCH><MEAN_MOTION>14.45224640</MEAN_MOTION><ECCENTRICITY>.0004923</ECCENTRICITY><INCLINATION>45.0160</INCLINATION><RA_OF_ASC_NODE>56.4400</RA_OF_ASC_NODE><ARG_OF_PERICENTER>147.5906</ARG_OF_PERICENTER><MEAN_ANOMALY>212.5249</MEAN_ANOMALY></meanElements><tleParameters><EPHEMERIS_TYPE>0</EPHEMERIS_TYPE><CLASSIFICATION_TYPE>U</CLASSIFICATION_TYPE><NORAD_CAT_ID>25116</NORAD_CAT_ID><ELEMENT_SET_NO>999</ELEMENT_SET_NO><REV_AT_EPOCH>44015</REV_AT_EPOCH><BSTAR>.35086E-3</BSTAR><MEAN_MOTION_DOT>.1097E-4</MEAN_MOTION_DOT><MEAN_MOTION_DDOT>0</MEAN_MOTION_DDOT></tleParameters></data></segment></body></omm>

</ndm>
